{"type": "FeatureCollection", "features": [ {"type": "Feature", "properties": {"norad_id": 60453, "name": "LEGION 4", "group": "resource", "lat": -43.15413578845544, "lon": 14.336860662853065, "alt_km": 515.8352663865971, "timestamp": "2025-12-04T21:36:15.532299+00:00", "meta": {"OBJECT_NAME": "LEGION 4", "OBJECT_ID": "2024-146B", "EPOCH": "2025-12-04T15:36:27.390528", "MEAN_MOTION": 15.15691704, "ECCENTRICITY": 0.00099596, "INCLINATION": 45.0387, "RA_OF_ASC_NODE": 85.2201, "ARG_OF_PERICENTER": 268.9762, "MEAN_ANOMALY": 90.9976, "EPHEMERIS_TYPE": 0, "CLASSIFICATION_TYPE": "U", "NORAD_CAT_ID": 60453, "ELEMENT_SET_NO": 999, "REV_AT_EPOCH": 7135, "BSTAR": 0.0006569088, "MEAN_MOTION_DOT": 0.00012492, "MEAN_MOTION_DDOT": 0}, "tle": {"line1": "1 60453U 24146B   25338.65031702  .00012492  00000+0  65691-3 0  9997", "line2": "2 60453  45.0387  85.2201 0009959 268.9762  90.9976 15.15691704 71352"}}, "geometry": {"type": "Point", "coordinates": [14.336860662853065, -43.15413578845544]}}, {"type": "Feature", "properties": {"norad_id": 60989, "name": "SENTINEL-2C", "group": "resource", "lat": -34.10645640891897, "lon": 57.35047320205276, "alt_km": 795.7148876296505, "timestamp": "2025-12-04T21:36:15.532310+00:00", "meta": {"OBJECT_NAME": "SENTINEL-2C", "OBJECT_ID": "2024-157A", "EPOCH": "2025-12-04T15:03:07.920000", "MEAN_MOTION": 14.30825273, "ECCENTRICITY": 0.0001133, "INCLINATION": 98.5612, "RA_OF_ASC_NODE": 51.2264, "ARG_OF_PERICENTER": 101.5584, "MEAN_ANOMALY": 258.5726, "EPHEMERIS_TYPE": 0, "CLASSIFICATION_TYPE": "U", "NORAD_CAT_ID": 60989, "ELEMENT_SET_NO": 999, "REV_AT_EPOCH": 6516, "BSTAR": 0.00014036146, "MEAN_MOTION_DOT": 3.24e-06, "MEAN_MOTION_DDOT": 0}, "tle": {"line1": "1 60989U 24157A   25338.62717500  .00000324  00000+0  14036-3 0  9995", "line2": "2 60989  98.5612  51.2264 0001133 101.5584 258.5726 14.30825273 65165"}}, "geometry": {"type": "Point", "coordinates": [57.35047320205276, -34.10645640891897]}}, {"type": "Feature", "properties": {"norad_id": 61735, "name": "IONOSFERA-M 1", "group": "resource", "lat": 76.58256454875315, "lon": 68.96759711209371, "alt_km": 808.5895992176611, "timestamp": "2025-12-04T21:36:15.532321+00:00", "meta": {"OBJECT_NAME": "IONOSFERA-M 1", "OBJECT_ID": "2024-199A", "EPOCH": "2025-12-04T16:04:17.691744", "MEAN_MOTION": 14.22711332, "ECCENTRICITY": 0.00013192, "INCLINATION": 98.7408, "RA_OF_ASC_NODE": 208.5794, "ARG_OF_PERICENTER": 32.9099, "MEAN_ANOMALY": 327.2161, "EPHEMERIS_TYPE": 0, "CLASSIFICATION_TYPE": "U", "NORAD_CAT_ID": 61735, "ELEMENT_SET_NO": 999, "REV_AT_EPOCH": 10004, "BSTAR": 9.4848156e-05, "MEAN_MOTION_DOT": 1.68e-06, "MEAN_MOTION_DDOT": 0}, "tle": {"line1": "1 61735U 24199A   25338.66964921  .00000168  00000+0  94848-4 0  9992", "line2": "2 61735  98.7408 208.5794 0001319  32.9099 327.2161 14.22711332100044"}}, "geometry": {"type": "Point", "coordinates": [68.96759711209371, 76.58256454875315]}}, {"type": "Feature", "properties": {"norad_id": 61736, "name": "IONOSFERA-M 2", "group": "resource", "lat": -74.57077048649596, "lon": -117.40135889912432, "alt_km": 824.4608235097412, "timestamp": "2025-12-04T21:36:15.532331+00:00", "meta": {"OBJECT_NAME": "IONOSFERA-M 2", "OBJECT_ID": "2024-199B", "EPOCH": "2025-12-04T15:12:55.726848", "MEAN_MOTION": 14.22713467, "ECCENTRICITY": 0.00014198, "INCLINATION": 98.7407, "RA_OF_ASC_NODE": 208.4566, "ARG_OF_PERICENTER": 120.2282, "MEAN_ANOMALY": 239.9037, "EPHEMERIS_TYPE": 0, "CLASSIFICATION_TYPE": "U", "NORAD_CAT_ID": 61736, "ELEMENT_SET_NO": 999, "REV_AT_EPOCH": 10316, "BSTAR": 9.9021566e-05, "MEAN_MOTION_DOT": 1.78e-06, "MEAN_MOTION_DDOT": 0}, "tle": {"line1": "1 61736U 24199B   25338.63397832  .00000178  00000+0  99022-4 0  9991", "line2": "2 61736  98.7407 208.4566 0001419 120.2282 239.9037 14.22713467103164"}}, "geometry": {"type": "Point", "coordinates": [-117.40135889912432, -74.57077048649596]}}, {"type": "Feature", "properties": {"norad_id": 63772, "name": "BIOMASS", "group": "resource", "lat": -66.44295069619784, "lon": -176.98583204007807, "alt_km": 676.8881237479973, "timestamp": "2025-12-04T21:36:15.532341+00:00", "meta": {"OBJECT_NAME": "BIOMASS", "OBJECT_ID": "2025-090A", "EPOCH": "2025-12-04T12:05:40.661376", "MEAN_MOTION": 14.67542436, "ECCENTRICITY": 0.00012231, "INCLINATION": 98.0699, "RA_OF_ASC_NODE": 163.6332, "ARG_OF_PERICENTER": 81.7537, "MEAN_ANOMALY": 278.3806, "EPHEMERIS_TYPE": 0, "CLASSIFICATION_TYPE": "U", "NORAD_CAT_ID": 63772, "ELEMENT_SET_NO": 999, "REV_AT_EPOCH": 3213, "BSTAR": 0.00057194121, "MEAN_MOTION_DOT": 3.197e-05, "MEAN_MOTION_DDOT": 0}, "tle": {"line1": "1 63772U 25090A   25338.50394284  .00003197  00000+0  57194-3 0  9995", "line2": "2 63772  98.0699 163.6332 0001223  81.7537 278.3806 14.67542436 32136"}}, "geometry": {"type": "Point", "coordinates": [-176.98583204007807, -66.44295069619784]}}, {"type": "Feature", "properties": {"norad_id": 64694, "name": "GOSAT-GW (IBUKI GW)", "group": "resource", "lat": 38.23639643928089, "lon": 100.94867101192915, "alt_km": 665.6914463289704, "timestamp": "2025-12-04T21:36:15.532352+00:00", "meta": {"OBJECT_NAME": "GOSAT-GW (IBUKI GW)", "OBJECT_ID": "2025-141A", "EPOCH": "2025-11-30T05:41:32.267328", "MEAN_MOTION": 14.67567435, "ECCENTRICITY": 0.00014369, "INCLINATION": 98.0401, "RA_OF_ASC_NODE": 269.9775, "ARG_OF_PERICENTER": 82.921, "MEAN_ANOMALY": 277.2158, "EPHEMERIS_TYPE": 0, "CLASSIFICATION_TYPE": "U", "NORAD_CAT_ID": 64694, "ELEMENT_SET_NO": 999, "REV_AT_EPOCH": 2266, "BSTAR": 0.00019762357, "MEAN_MOTION_DOT": 1.074e-05, "MEAN_MOTION_DDOT": 0}, "tle": {"line1": "1 64694U 25141A   25334.23717902  .00001074  00000+0  19762-3 0  9999", "line2": "2 64694  98.0401 269.9775 0001436  82.9210 277.2158 14.67567435 22660"}}, "geometry": {"type": "Point", "coordinates": [100.94867101192915, 38.23639643928089]}}, {"type": "Feature", "properties": {"norad_id": 64876, "name": "IONOSFERA-M 3", "group": "resource", "lat": 2.92000403549316, "lon": -59.45249560617782, "alt_km": 822.4072946951601, "timestamp": "2025-12-04T21:36:15.532362+00:00", "meta": {"OBJECT_NAME": "IONOSFERA-M 3", "OBJECT_ID": "2025-155A", "EPOCH": "2025-12-04T14:49:58.480608", "MEAN_MOTION": 14.21437957, "ECCENTRICITY": 0.00023803, "INCLINATION": 98.5771, "RA_OF_ASC_NODE": 300.7145, "ARG_OF_PERICENTER": 72.7707, "MEAN_ANOMALY": 287.3731, "EPHEMERIS_TYPE": 0, "CLASSIFICATION_TYPE": "U", "NORAD_CAT_ID": 64876, "ELEMENT_SET_NO": 999, "REV_AT_EPOCH": 1876, "BSTAR": 0.00010001289, "MEAN_MOTION_DOT": 1.76e-06, "MEAN_MOTION_DDOT": 0}, "tle": {"line1": "1 64876U 25155A   25338.61803797  .00000176  00000+0  10001-3 0  9999", "line2": "2 64876  98.5771 300.7145 0002380  72.7707 287.3731 14.21437957 18769"}}, "geometry": {"type": "Point", "coordinates": [-59.45249560617782, 2.92000403549316]}}, {"type": "Feature", "properties": {"norad_id": 64877, "name": "IONOSFERA-M 4", "group": "resource", "lat": -3.8140919697256455, "lon": 120.33172418489424, "alt_km": 824.3758161467713, "timestamp": "2025-12-04T21:36:15.532372+00:00", "meta": {"OBJECT_NAME": "IONOSFERA-M 4", "OBJECT_ID": "2025-155B", "EPOCH": "2025-12-04T15:40:28.710912", "MEAN_MOTION": 14.21438984, "ECCENTRICITY": 0.00017354, "INCLINATION": 98.577, "RA_OF_ASC_NODE": 300.6682, "ARG_OF_PERICENTER": 71.7996, "MEAN_ANOMALY": 288.337, "EPHEMERIS_TYPE": 0, "CLASSIFICATION_TYPE": "U", "NORAD_CAT_ID": 64877, "ELEMENT_SET_NO": 999, "REV_AT_EPOCH": 1876, "BSTAR": 9.7953631e-05, "MEAN_MOTION_DOT": 1.71e-06, "MEAN_MOTION_DDOT": 0}, "tle": {"line1": "1 64877U 25155B   25338.65311008  .00000171  00000+0  97954-4 0  9991", "line2": "2 64877  98.5770 300.6682 0001735  71.7996 288.3370 14.21438984 18767"}}, "geometry": {"type": "Point", "coordinates": [120.33172418489424, -3.8140919697256455]}}, {"type": "Feature", "properties": {"norad_id": 64899, "name": "MICROCARB", "group": "resource", "lat": -7.677375837916789, "lon": 55.45793608242444, "alt_km": 670.1733686104535, "timestamp": "2025-12-04T21:36:15.532383+00:00", "meta": {"OBJECT_NAME": "MICROCARB", "OBJECT_ID": "2025-156A", "EPOCH": "2025-12-04T15:06:50.550336", "MEAN_MOTION": 14.72036859, "ECCENTRICITY": 0.00165926, "INCLINATION": 98.0034, "RA_OF_ASC_NODE": 54.1051, "ARG_OF_PERICENTER": 169.9206, "MEAN_ANOMALY": 190.2337, "EPHEMERIS_TYPE": 0, "CLASSIFICATION_TYPE": "U", "NORAD_CAT_ID": 64899, "ELEMENT_SET_NO": 999, "REV_AT_EPOCH": 1934, "BSTAR": 0.00024539484, "MEAN_MOTION_DOT": 1.495e-05, "MEAN_MOTION_DDOT": 0}, "tle": {"line1": "1 64899U 25156A   25338.62975174  .00001495  00000+0  24539-3 0  9991", "line2": "2 64899  98.0034  54.1051 0016592 169.9206 190.2337 14.72036859 19341"}}, "geometry": {"type": "Point", "coordinates": [55.45793608242444, -7.677375837916789]}}, {"type": "Feature", "properties": {"norad_id": 64900, "name": "CO3D 3", "group": "resource", "lat": 61.60878550523175, "lon": -110.63811668751751, "alt_km": 498.19096091485153, "timestamp": "2025-12-04T21:36:15.532393+00:00", "meta": {"OBJECT_NAME": "CO3D 3", "OBJECT_ID": "2025-156B", "EPOCH": "2025-12-02T23:16:40.108224", "MEAN_MOTION": 15.2021179, "ECCENTRICITY": 0.00013753, "INCLINATION": 97.4352, "RA_OF_ASC_NODE": 53.4771, "ARG_OF_PERICENTER": 132.9697, "MEAN_ANOMALY": 227.1654, "EPHEMERIS_TYPE": 0, "CLASSIFICATION_TYPE": "U", "NORAD_CAT_ID": 64900, "ELEMENT_SET_NO": 999, "REV_AT_EPOCH": 1972, "BSTAR": 0.00042667501, "MEAN_MOTION_DOT": 9.183e-05, "MEAN_MOTION_DDOT": 0}, "tle": {"line1": "1 64900U 25156B   25336.96990866  .00009183  00000+0  42668-3 0  9999", "line2": "2 64900  97.4352  53.4771 0001375 132.9697 227.1654 15.20211790 19725"}}, "geometry": {"type": "Point", "coordinates": [-110.63811668751751, 61.60878550523175]}}]}